CCSDS_OMM_VERS = 2.0
CREATION_DATE  = 
ORIGINATOR     = 

OBJECT_NAME    = HTV-X1
OBJECT_ID      = 2025-241A
CENTER_NAME    = EARTH
REF_FRAME      = TEME
TIME_SYSTEM    = UTC
MEAN_ELEMENT_THEORY = SGP/SGP4

EPOCH          = 2026-03-31T11:54:36.889920
MEAN_MOTION    = 15.32487001
ECCENTRICITY   = .0007219
INCLINATION    = 51.6379
RA_OF_ASC_NODE = 327.9695
ARG_OF_PERICENTER = 257.2835
MEAN_ANOMALY   = 102.7340

EPHEMERIS_TYPE = 0
CLASSIFICATION_TYPE = U
NORAD_CAT_ID   = 66174
ELEMENT_SET_NO = 999
REV_AT_EPOCH   = 2428
BSTAR          = .62262E-4
MEAN_MOTION_DOT = .1611E-4
MEAN_MOTION_DDOT = 0

CCSDS_OMM_VERS = 2.0
CREATION_DATE  = 
ORIGINATOR     = 

OBJECT_NAME    = SZ-21 MODULE
OBJECT_ID      = 2025-246C
CENTER_NAME    = EARTH
REF_FRAME      = TEME
TIME_SYSTEM    = UTC
MEAN_ELEMENT_THEORY = SGP/SGP4

EPOCH          = 2026-03-31T06:20:06.452448
MEAN_MOTION    = 15.70260620
ECCENTRICITY   = .00022503
INCLINATION    = 41.4737
RA_OF_ASC_NODE = 70.3854
ARG_OF_PERICENTER = 217.0010
MEAN_ANOMALY   = 143.0678

EPHEMERIS_TYPE = 0
CLASSIFICATION_TYPE = U
NORAD_CAT_ID   = 66515
ELEMENT_SET_NO = 999
REV_AT_EPOCH   = 2146
BSTAR          = .37632452E-3
MEAN_MOTION_DOT = .47078E-3
MEAN_MOTION_DDOT = 0

CCSDS_OMM_VERS = 2.0
CREATION_DATE  = 
ORIGINATOR     = 

OBJECT_NAME    = SHENZHOU-22
OBJECT_ID      = 2025-272A
CENTER_NAME    = EARTH
REF_FRAME      = TEME
TIME_SYSTEM    = UTC
MEAN_ELEMENT_THEORY = SGP/SGP4

EPOCH          = 2026-03-31T06:33:18.973728
MEAN_MOTION    = 15.61745340
ECCENTRICITY   = .00037246
INCLINATION    = 41.4667
RA_OF_ASC_NODE = 76.7249
ARG_OF_PERICENTER = 77.1096
MEAN_ANOMALY   = 283.0159

EPHEMERIS_TYPE = 0
CLASSIFICATION_TYPE = U
NORAD_CAT_ID   = 66645
ELEMENT_SET_NO = 999
REV_AT_EPOCH   = 28115
BSTAR          = .31137636E-3
MEAN_MOTION_DOT = .2746E-3
MEAN_MOTION_DDOT = 0

CCSDS_OMM_VERS = 2.0
CREATION_DATE  = 
ORIGINATOR     = 

OBJECT_NAME    = SOYUZ-MS 28
OBJECT_ID      = 2025-275A
CENTER_NAME    = EARTH
REF_FRAME      = TEME
TIME_SYSTEM    = UTC
MEAN_ELEMENT_THEORY = SGP/SGP4

EPOCH          = 2026-03-31T03:11:39.798528
MEAN_MOTION    = 15.48671303
ECCENTRICITY   = .00062028
INCLINATION    = 51.6341
RA_OF_ASC_NODE = 326.3497
ARG_OF_PERICENTER = 253.7499
MEAN_ANOMALY   = 106.2807

EPHEMERIS_TYPE = 0
CLASSIFICATION_TYPE = U
NORAD_CAT_ID   = 66664
ELEMENT_SET_NO = 999
REV_AT_EPOCH   = 55931
BSTAR          = .21776695E-3
MEAN_MOTION_DOT = .11434E-3
MEAN_MOTION_DDOT = 0

CCSDS_OMM_VERS = 2.0
CREATION_DATE  = 
ORIGINATOR     = 

OBJECT_NAME    = DUPLEX
OBJECT_ID      = 1998-067XS
CENTER_NAME    = EARTH
REF_FRAME      = TEME
TIME_SYSTEM    = UTC
MEAN_ELEMENT_THEORY = SGP/SGP4

EPOCH          = 2026-03-30T23:03:07.718400
MEAN_MOTION    = 15.57650066
ECCENTRICITY   = .00030498
INCLINATION    = 51.6299
RA_OF_ASC_NODE = 322.9482
ARG_OF_PERICENTER = 209.9904
MEAN_ANOMALY   = 150.0914

EPHEMERIS_TYPE = 0
CLASSIFICATION_TYPE = U
NORAD_CAT_ID   = 66906
ELEMENT_SET_NO = 999
REV_AT_EPOCH   = 1844
BSTAR          = .46740362E-3
MEAN_MOTION_DOT = .34903E-3
MEAN_MOTION_DDOT = 0

CCSDS_OMM_VERS = 2.0
CREATION_DATE  = 
ORIGINATOR     = 

OBJECT_NAME    = ISS OBJECT XT
OBJECT_ID      = 1998-067XT
CENTER_NAME    = EARTH
REF_FRAME      = TEME
TIME_SYSTEM    = UTC
MEAN_ELEMENT_THEORY = SGP/SGP4

EPOCH          = 2026-03-30T23:48:34.422912
MEAN_MOTION    = 15.77474142
ECCENTRICITY   = .0006496
INCLINATION    = 51.6233
RA_OF_ASC_NODE = 316.3688
ARG_OF_PERICENTER = 218.8764
MEAN_ANOMALY   = 141.1770

EPHEMERIS_TYPE = 0
CLASSIFICATION_TYPE = U
NORAD_CAT_ID   = 66907
ELEMENT_SET_NO = 999
REV_AT_EPOCH   = 1853
BSTAR          = .15250225E-2
MEAN_MOTION_DOT = .26625E-2
MEAN_MOTION_DDOT = 0

CCSDS_OMM_VERS = 2.0
CREATION_DATE  = 
ORIGINATOR     = 

OBJECT_NAME    = ISS OBJECT XU
OBJECT_ID      = 1998-067XU
CENTER_NAME    = EARTH
REF_FRAME      = TEME
TIME_SYSTEM    = UTC
MEAN_ELEMENT_THEORY = SGP/SGP4

EPOCH          = 2026-03-30T23:42:35.965728
MEAN_MOTION    = 15.77741414
ECCENTRICITY   = .00067239
INCLINATION    = 51.6237
RA_OF_ASC_NODE = 316.3364
ARG_OF_PERICENTER = 218.1981
MEAN_ANOMALY   = 141.8543

EPHEMERIS_TYPE = 0
CLASSIFICATION_TYPE = U
NORAD_CAT_ID   = 66908
ELEMENT_SET_NO = 999
REV_AT_EPOCH   = 1853
BSTAR          = .15781782E-2
MEAN_MOTION_DOT = .27931E-2
MEAN_MOTION_DDOT = 0

CCSDS_OMM_VERS = 2.0
CREATION_DATE  = 
ORIGINATOR     = 

OBJECT_NAME    = SILVERSAT
OBJECT_ID      = 1998-067XV
CENTER_NAME    = EARTH
REF_FRAME      = TEME
TIME_SYSTEM    = UTC
MEAN_ELEMENT_THEORY = SGP/SGP4

EPOCH          = 2026-03-30T23:56:13.358112
MEAN_MOTION    = 15.83552073
ECCENTRICITY   = .00076656
INCLINATION    = 51.6200
RA_OF_ASC_NODE = 314.8852
ARG_OF_PERICENTER = 225.3563
MEAN_ANOMALY   = 134.6816

EPHEMERIS_TYPE = 0
CLASSIFICATION_TYPE = U
NORAD_CAT_ID   = 66909
ELEMENT_SET_NO = 999
REV_AT_EPOCH   = 1855
BSTAR          = .17359302E-2
MEAN_MOTION_DOT = .407567E-2
MEAN_MOTION_DDOT = 0

CCSDS_OMM_VERS = 2.0
CREATION_DATE  = 
ORIGINATOR     = 

OBJECT_NAME    = ISS OBJECT XW
OBJECT_ID      = 1998-067XW
CENTER_NAME    = EARTH
REF_FRAME      = TEME
TIME_SYSTEM    = UTC
MEAN_ELEMENT_THEORY = SGP/SGP4

EPOCH          = 2026-03-31T00:01:51.564000
MEAN_MOTION    = 15.75865069
ECCENTRICITY   = .00067105
INCLINATION    = 51.6221
RA_OF_ASC_NODE = 316.4232
ARG_OF_PERICENTER = 215.2367
MEAN_ANOMALY   = 144.8190

EPHEMERIS_TYPE = 0
CLASSIFICATION_TYPE = U
NORAD_CAT_ID   = 66910
ELEMENT_SET_NO = 999
REV_AT_EPOCH   = 1853
BSTAR          = .14085166E-2
MEAN_MOTION_DOT = .227945E-2
MEAN_MOTION_DDOT = 0

CCSDS_OMM_VERS = 2.0
CREATION_DATE  = 
ORIGINATOR     = 

OBJECT_NAME    = ISS OBJECT XX
OBJECT_ID      = 1998-067XX
CENTER_NAME    = EARTH
REF_FRAME      = TEME
TIME_SYSTEM    = UTC
MEAN_ELEMENT_THEORY = SGP/SGP4

EPOCH          = 2026-03-30T23:48:52.674048
MEAN_MOTION    = 15.91183694
ECCENTRICITY   = .00096988
INCLINATION    = 51.6173
RA_OF_ASC_NODE = 313.3117
ARG_OF_PERICENTER = 230.4896
MEAN_ANOMALY   = 129.5254

EPHEMERIS_TYPE = 0
CLASSIFICATION_TYPE = U
NORAD_CAT_ID   = 66911
ELEMENT_SET_NO = 999
REV_AT_EPOCH   = 1856
BSTAR          = .1975357E-2
MEAN_MOTION_DOT = .643331E-2
MEAN_MOTION_DDOT = .1746781E-3

CCSDS_OMM_VERS = 2.0
CREATION_DATE  = 
ORIGINATOR     = 

OBJECT_NAME    = ISS OBJECT XY
OBJECT_ID      = 1998-067XY
CENTER_NAME    = EARTH
REF_FRAME      = TEME
TIME_SYSTEM    = UTC
MEAN_ELEMENT_THEORY = SGP/SGP4

EPOCH          = 2026-03-31T00:36:52.629696
MEAN_MOTION    = 15.68176459
ECCENTRICITY   = .00045982
INCLINATION    = 51.6266
RA_OF_ASC_NODE = 318.8692
ARG_OF_PERICENTER = 214.4889
MEAN_ANOMALY   = 145.5810

EPHEMERIS_TYPE = 0
CLASSIFICATION_TYPE = U
NORAD_CAT_ID   = 66912
ELEMENT_SET_NO = 999
REV_AT_EPOCH   = 1849
BSTAR          = .11754749E-2
MEAN_MOTION_DOT = .135589E-2
MEAN_MOTION_DDOT = 0

CCSDS_OMM_VERS = 2.0
CREATION_DATE  = 
ORIGINATOR     = 

OBJECT_NAME    = KNACKSAT-2
OBJECT_ID      = 1998-067XZ
CENTER_NAME    = EARTH
REF_FRAME      = TEME
TIME_SYSTEM    = UTC
MEAN_ELEMENT_THEORY = SGP/SGP4

EPOCH          = 2026-03-30T21:39:25.678656
MEAN_MOTION    = 15.53622032
ECCENTRICITY   = .0010183
INCLINATION    = 51.6321
RA_OF_ASC_NODE = 326.3110
ARG_OF_PERICENTER = 263.1970
MEAN_ANOMALY   = 96.7862

EPHEMERIS_TYPE = 0
CLASSIFICATION_TYPE = U
NORAD_CAT_ID   = 67683
ELEMENT_SET_NO = 999
REV_AT_EPOCH   = 808
BSTAR          = .75035E-3
MEAN_MOTION_DOT = .48681E-3
MEAN_MOTION_DDOT = 0

